{
  "norad_id": 53637,
  "name": "STARLINK-4396",
  "history": [
    {
      "epoch": "2026-03-28T20:09:52.199136Z",
      "apogee_km": 540.6251098223456,
      "perigee_km": 538.8733626696039,
      "latitude_deg": 5.000194287307472e-06,
      "longitude_deg": 9.611544836052625,
      "height_km": 540.5937436439592,
      "semi_major_axis_km": 6917.886236245975,
      "eccentricity": 0.00012661,
      "inclination_deg": 53.2162,
      "raan_deg": 138.3339,
      "arg_perigee_deg": 86.6486,
      "mean_anomaly_deg": 273.4651,
      "mean_motion_rev_day": 15.08838087
    }
  ]
}