{"fetched_at":"2026-03-29T16:36:15Z","count":15609,"tles":[{"name":"STARLINK-4396","line1":"1 53637U 22104BB  26087.84018749  .00000583  00000+0  54743-4 0  9999","line2":"2 53637  53.2162 138.3339 0001266  86.6486 273.4651 15.08838087199115","category":"Starlink"}]}